{
    "links": {
        "self": "http://www.neowsapp.com/rest/v1/neo/54087574?api_key=iIulBulltgU6a56xZRHN4H3l9WmuAYTsLGpBGhQ2"
    },
    "id": "54087574",
    "neo_reference_id": "54087574",
    "name": "(2020 VM1)",
    "designation": "2020 VM1",
    "nasa_jpl_url": "http://ssd.jpl.nasa.gov/sbdb.cgi?sstr=54087574",
    "absolute_magnitude_h": 20.727,
    "estimated_diameter": {
        "kilometers": {
            "estimated_diameter_min": 0.1901756795,
            "estimated_diameter_max": 0.425245747
        },
        "meters": {
            "estimated_diameter_min": 190.1756794726,
            "estimated_diameter_max": 425.245746968
        },
        "miles": {
            "estimated_diameter_min": 0.1181696521,
            "estimated_diameter_max": 0.264235375
        },
        "feet": {
            "estimated_diameter_min": 623.9359762409,
            "estimated_diameter_max": 1395.1632564824
        }
    },
    "is_potentially_hazardous_asteroid": true,
    "close_approach_data": [
        {
            "close_approach_date": "2020-11-01",
            "close_approach_date_full": "2020-Nov-01 20:33",
            "epoch_date_close_approach": 1604262780000,
            "relative_velocity": {
                "kilometers_per_second": "29.4778238826",
                "kilometers_per_hour": "106120.1659772322",
                "miles_per_hour": "65938.9442429085"
            },
            "miss_distance": {
                "astronomical": "0.1882185538",
                "lunar": "73.2170174282",
                "kilometers": "28157094.742960406",
                "miles": "17496007.3726333628"
            },
            "orbiting_body": "Earth"
        }
    ],
    "orbital_data": {
        "orbit_id": "12",
        "orbit_determination_date": "2020-11-29 05:18:52",
        "first_observation_date": "2020-11-08",
        "last_observation_date": "2020-11-29",
        "data_arc_in_days": 21,
        "observations_used": 91,
        "orbit_uncertainty": "8",
        "minimum_orbit_intersection": ".0233508",
        "jupiter_tisserand_invariant": "2.859",
        "epoch_osculation": "2459164.5",
        "eccentricity": ".6111182139511964",
        "semi_major_axis": "2.488366982129393",
        "inclination": "45.42981187872432",
        "ascending_node_longitude": "31.37304737231241",
        "orbital_period": "1433.738911249007",
        "perihelion_distance": ".9676805963553498",
        "perihelion_argument": "330.2000889791319",
        "aphelion_distance": "4.009053367903436",
        "perihelion_time": "2459134.597418369711",
        "mean_anomaly": "7.508291295188559",
        "mean_motion": ".2510917414429275",
        "equinox": "J2000",
        "orbit_class": {
            "orbit_class_type": "APO",
            "orbit_class_description": "Near-Earth asteroid orbits which cross the Earth’s orbit similar to that of 1862 Apollo",
            "orbit_class_range": "a (semi-major axis) > 1.0 AU; q (perihelion) < 1.017 AU"
        }
    },
    "is_sentry_object": false
}